OBJECT_NAME,OBJECT_ID,EPOCH,MEAN_MOTION,ECCENTRICITY,INCLINATION,RA_OF_ASC_NODE,ARG_OF_PERICENTER,MEAN_ANOMALY,EPHEMERIS_TYPE,CLASSIFICATION_TYPE,NORAD_CAT_ID,ELEMENT_SET_NO,REV_AT_EPOCH,BSTAR,MEAN_MOTION_DOT,MEAN_MOTION_DDOT
HULIANWANG DIGUI-82,2025-220A,2026-07-19T01:05:47.003424,13.24409714,.00022172,86.4952,33.0977,99.2393,260.8992,0,U,65817,999,3913,-.3000969E-5,.13E-6,0
HULIANWANG DIGUI-83,2025-220B,2026-07-19T06:21:22.030848,13.24409928,.00022425,86.4975,33.0837,98.3083,261.8305,0,U,65818,999,3916,.22861701E-4,.24E-6,0
HULIANWANG DIGUI-84,2025-220C,2026-07-19T00:44:03.984288,13.24409749,.00021829,86.4912,32.9718,98.8958,261.2423,0,U,65819,999,3913,.28900368E-4,.27E-6,0
HULIANWANG DIGUI-85,2025-220D,2026-07-19T05:59:33.395712,13.24408663,.00021709,86.4973,33.0714,100.9128,259.2251,0,U,65820,999,3916,.26213783E-4,.26E-6,0
HULIANWANG DIGUI-86,2025-220E,2026-07-19T02:11:17.538144,13.24411465,.00020452,86.4952,33.0558,84.9248,275.2120,0,U,65821,999,3914,.13144452E-4,.2E-6,0
STARLINK-35392,2025-221A,2026-07-19T05:37:58.703808,15.34395575,.00019359,53.1576,197.3252,127.2533,232.8646,0,U,65823,999,4622,.26211066E-3,.8488E-4,0
STARLINK-35281,2025-221B,2026-07-19T05:19:48.217440,15.34393437,.00012921,53.1589,197.2483,87.0584,273.0566,0,U,65824,999,4622,.19717009E-3,.629E-4,0
STARLINK-35397,2025-221C,2026-07-19T04:12:27.990144,15.34398271,.00016108,53.1582,195.5382,90.9093,269.2094,0,U,65825,999,4624,.24208379E-3,.7811E-4,0
STARLINK-35381,2025-221D,2026-07-19T04:30:38.659680,15.34397160,.00016345,53.1602,195.6161,112.9160,247.2015,0,U,65826,999,4624,.24433484E-3,.7887E-4,0
STARLINK-35393,2025-221E,2026-07-19T05:31:07.120992,15.34396253,.00020376,53.1584,195.1667,50.5091,309.6091,0,U,65827,999,4625,.27209111E-3,.8826E-4,0
STARLINK-35396,2025-221F,2026-07-19T04:42:45.944640,15.34393205,.00011195,53.1580,195.6698,89.4585,270.6546,0,U,65828,999,4624,.17141597E-3,.5418E-4,0
STARLINK-35244,2025-221G,2026-07-19T05:42:03.346272,15.31705085,.00015725,53.1598,199.5125,87.2926,272.8255,0,U,65829,999,4615,.19126297E-3,.5575E-4,0
STARLINK-35368,2025-221H,2026-07-19T06:02:13.083648,15.34404381,.00017087,53.1583,197.4276,93.0784,267.0414,0,U,65830,999,4618,.30113542E-3,.9813E-4,0
STARLINK-35337,2025-221J,2026-07-19T05:25:04.699776,15.34408156,.00014476,53.1577,195.1403,80.5495,279.5671,0,U,65831,999,4625,.3786468E-3,.12441E-3,0
STARLINK-35277,2025-221K,2026-07-19T05:00:56.617632,15.34391884,.00011942,53.1583,195.7469,89.5935,270.5205,0,U,65832,999,4624,.15270904E-3,.4785E-4,0
STARLINK-35345,2025-221L,2026-07-19T04:57:54.740448,15.34397013,.00010339,53.1571,195.7307,88.5509,271.5612,0,U,65833,999,4624,.26543899E-3,.8602E-4,0
STARLINK-35320,2025-221M,2026-07-16T12:27:41.586048,15.30899344,.0001646,53.1568,210.2378,59.4247,300.6916,0,U,65834,999,4445,.10196E-1,.321933E-2,0
STARLINK-35349,2025-221N,2026-07-19T07:02:41.273664,15.34400006,.00012414,53.1595,196.9818,78.9213,281.1929,0,U,65835,999,4488,.38433353E-3,.12631E-3,0
STARLINK-35356,2025-221P,2026-07-19T06:00:02.000160,15.33539098,.00011568,53.1592,197.0529,77.0750,107.6333,0,U,65836,999,587,-.29429575E-3,-.10035E-3,0
STARLINK-35314,2025-221Q,2026-07-19T04:36:42.302592,15.34398513,.00010989,53.1592,195.6415,80.8419,279.2708,0,U,65837,999,4489,.28393732E-3,.9228E-4,0
STARLINK-35324,2025-221R,2026-07-19T06:44:30.375168,15.34393507,.00012939,53.1580,196.9028,86.9574,273.1577,0,U,65838,999,4488,.12906722E-3,.3986E-4,0
STARLINK-35102,2025-221S,2026-07-19T04:54:53.149248,15.34394117,.00012804,53.1575,195.7198,97.9543,262.1605,0,U,65839,999,4489,.24610062E-3,.7946E-4,0
STARLINK-35364,2025-221T,2026-07-19T05:28:05.020896,15.34396942,.00013051,53.1572,195.1512,95.4074,264.7077,0,U,65840,999,4490,.24680527E-3,.7971E-4,0
STARLINK-35298,2025-221V,2026-07-19T05:58:22.707552,15.34400136,.0002987,53.1579,195.2827,14.9991,345.1100,0,U,65842,999,4490,.34791029E-3,.11397E-3,0
STARLINK-35301,2025-221W,2026-07-19T05:43:13.961856,15.34396083,.00014074,53.1595,195.2157,87.0131,273.1033,0,U,65843,999,4490,.25938786E-3,.8396E-4,0
STARLINK-35148,2025-221X,2026-07-19T05:40:12.081216,15.34400030,.00012386,53.1590,195.2055,88.3614,271.7531,0,U,65844,999,4490,.35797525E-3,.11738E-3,0
STARLINK-35302,2025-221Y,2026-07-19T05:34:08.588640,15.34390288,.00014085,53.1582,195.1775,83.8778,276.2385,0,U,65845,999,4490,.92972015E-4,.2765E-4,0
STARLINK-35290,2025-221Z,2026-07-19T04:48:49.220352,15.34392756,.00011985,53.1592,195.6899,107.5007,252.6127,0,U,65846,999,4489,.17898833E-3,.5674E-4,0
STARLINK-35262,2025-221AA,2026-07-19T04:16:16.255488,15.34435763,.00012652,53.1599,197.6762,93.3966,266.7181,0,U,65847,999,4621,.31873254E-3,.1042E-3,0
STARLINK-35308,2025-221AB,2026-07-19T05:55:21.169056,15.34401674,.00013015,53.1570,195.2681,96.5682,263.5468,0,U,65848,999,4625,.38379961E-3,.12614E-3,0
