HULIANWANG DIGUI-82     
1 65817U 25220A   26200.04568291  .00000013  00000+0 -30010-5 0  9996
2 65817  86.4952  33.0977 0002217  99.2393 260.8992 13.24409714 39136
HULIANWANG DIGUI-83     
1 65818U 25220B   26200.26483832  .00000024  00000+0  22862-4 0  9994
2 65818  86.4975  33.0837 0002242  98.3083 261.8305 13.24409928 39160
HULIANWANG DIGUI-84     
1 65819U 25220C   26200.03060167  .00000027  00000+0  28900-4 0  9994
2 65819  86.4912  32.9718 0002182  98.8958 261.2423 13.24409749 39130
HULIANWANG DIGUI-85     
1 65820U 25220D   26200.24969208  .00000026  00000+0  26214-4 0  9998
2 65820  86.4973  33.0714 0002170 100.9128 259.2251 13.24408663 39161
HULIANWANG DIGUI-86     
1 65821U 25220E   26200.09117521  .00000020  00000+0  13144-4 0  9997
2 65821  86.4952  33.0558 0002045  84.9248 275.2120 13.24411465 39145
STARLINK-35392          
1 65823U 25221A   26200.23470722  .00008488  00000+0  26211-3 0  9995
2 65823  53.1576 197.3252 0001935 127.2533 232.8646 15.34395575 46225
STARLINK-35281          
1 65824U 25221B   26200.22208585  .00006290  00000+0  19717-3 0  9993
2 65824  53.1589 197.2483 0001292  87.0584 273.0566 15.34393437 46223
STARLINK-35397          
1 65825U 25221C   26200.17532396  .00007811  00000+0  24208-3 0  9999
2 65825  53.1582 195.5382 0001610  90.9093 269.2094 15.34398271 46244
STARLINK-35381          
1 65826U 25221D   26200.18794745  .00007887  00000+0  24433-3 0  9992
2 65826  53.1602 195.6161 0001634 112.9160 247.2015 15.34397160 46245
STARLINK-35393          
1 65827U 25221E   26200.22994353  .00008826  00000+0  27209-3 0  9993
2 65827  53.1584 195.1667 0002037  50.5091 309.6091 15.34396253 46259
STARLINK-35396          
1 65828U 25221F   26200.19636510  .00005418  00000+0  17142-3 0  9997
2 65828  53.1580 195.6698 0001119  89.4585 270.6546 15.34393205 46249
STARLINK-35244          
1 65829U 25221G   26200.23753873  .00005575  00000+0  19126-3 0  9993
2 65829  53.1598 199.5125 0001572  87.2926 272.8255 15.31705085 46156
STARLINK-35368          
1 65830U 25221H   26200.25154032  .00009813  00000+0  30114-3 0  9998
2 65830  53.1583 197.4276 0001708  93.0784 267.0414 15.34404381 46188
STARLINK-35337          
1 65831U 25221J   26200.22574884  .00012441  00000+0  37865-3 0  9998
2 65831  53.1577 195.1403 0001447  80.5495 279.5671 15.34408156 46254
STARLINK-35277          
1 65832U 25221K   26200.20898863  .00004785  00000+0  15271-3 0  9992
2 65832  53.1583 195.7469 0001194  89.5935 270.5205 15.34391884 46249
STARLINK-35345          
1 65833U 25221L   26200.20688357  .00008602  00000+0  26544-3 0  9995
2 65833  53.1571 195.7307 0001033  88.5509 271.5612 15.34397013 46249
STARLINK-35320          
1 65834U 25221M   26197.51923132  .00321933  00000+0  10196-1 0  9997
2 65834  53.1568 210.2378 0001646  59.4247 300.6916 15.30899344 44455
STARLINK-35349          
1 65835U 25221N   26200.29353326  .00012631  00000+0  38433-3 0  9998
2 65835  53.1595 196.9818 0001241  78.9213 281.1929 15.34400006 44886
STARLINK-35356          
1 65836U 25221P   26200.25002315 -.00010035  00000+0 -29430-3 0  9999
2 65836  53.1592 197.0529 0001156  77.0750 107.6333 15.33539098  5876
STARLINK-35314          
1 65837U 25221Q   26200.19215628  .00009228  00000+0  28394-3 0  9994
2 65837  53.1592 195.6415 0001098  80.8419 279.2708 15.34398513 44897
STARLINK-35324          
1 65838U 25221R   26200.28090712  .00003986  00000+0  12907-3 0  9998
2 65838  53.1580 196.9028 0001293  86.9574 273.1577 15.34393507 44889
STARLINK-35102          
1 65839U 25221S   26200.20478182  .00007946  00000+0  24610-3 0  9996
2 65839  53.1575 195.7198 0001280  97.9543 262.1605 15.34394117 44892
STARLINK-35364          
1 65840U 25221T   26200.22783589  .00007971  00000+0  24681-3 0  9996
2 65840  53.1572 195.1512 0001305  95.4074 264.7077 15.34396942 44906
STARLINK-35298          
1 65842U 25221V   26200.24887393  .00011397  00000+0  34791-3 0  9998
2 65842  53.1579 195.2827 0002987  14.9991 345.1100 15.34400136 44908
STARLINK-35301          
1 65843U 25221W   26200.23835604  .00008396  00000+0  25939-3 0  9995
2 65843  53.1595 195.2157 0001407  87.0131 273.1033 15.34396083 44906
STARLINK-35148          
1 65844U 25221X   26200.23625094  .00011738  00000+0  35798-3 0  9994
2 65844  53.1590 195.2055 0001238  88.3614 271.7531 15.34400030 44906
STARLINK-35302          
1 65845U 25221Y   26200.23204385  .00002765  00000+0  92972-4 0  9999
2 65845  53.1582 195.1775 0001408  83.8778 276.2385 15.34390288 44906
STARLINK-35290          
1 65846U 25221Z   26200.20056968  .00005674  00000+0  17899-3 0  9995
2 65846  53.1592 195.6899 0001198 107.5007 252.6127 15.34392756 44897
STARLINK-35262          
1 65847U 25221AA  26200.17796592  .00010420  00000+0  31873-3 0  9999
2 65847  53.1599 197.6762 0001265  93.3966 266.7181 15.34435763 46217
STARLINK-35308          
1 65848U 25221AB  26200.24677279  .00012614  00000+0  38380-3 0  9995
2 65848  53.1570 195.2681 0001301  96.5682 263.5468 15.34401674 46253
